STARLINK-36400          
1 67575U 26016Q   26044.11505119  .00111429  00000+0  57375-3 0  9991
2 67575  97.2842 103.3665 0001537  90.7464 269.3980 15.80866163  2939
STARLINK-36591          
1 67576U 26016R   26044.11399139  .00566407  00000+0  27333-2 0  9995
2 67576  97.2841 103.3715 0000336 219.7310 140.3934 15.81105062  2936
STARLINK-36590          
1 67577U 26016S   26044.16668981 -.01863826  00000+0 -13141-1 0  9994
2 67577  97.2847 103.4260 0001691  74.6477 224.6109 15.77099784  4105
STARLINK-36613          
1 67578U 26016T   26044.11191459  .00132398  00000+0  68004-3 0  9991
2 67578  97.2843 103.3734 0001196  87.7443 272.3962 15.80863376  2931
STARLINK-36571          
1 67579U 26016U   26043.91670139 -.00034056  00000+0 -22835-3 0  9992
2 67579  97.2843 103.1573 0001479  83.4837 218.7037 15.75191172  4060
STARLINK-36612          
1 67580U 26016V   26043.91942290  .00130867  00000+0  67293-3 0  9996
2 67580  97.2850 103.1759 0001067  86.8428 273.2962 15.80843002  2908
STARLINK-36632          
1 67581U 26016W   26043.91636659 -.00533206  00000+0 -30541-2 0  9997
2 67581  97.2851 103.1801 0001373 113.6495 246.4917 15.80105372  2904
STARLINK-36609          
1 67582U 26016X   26043.91670139  .00067942  00000+0  45240-3 0  9999
2 67582  97.2846 103.1462 0001250  74.1200 205.9252 15.75208947  4068
STARLINK-36577          
1 67583U 26016Y   26043.91794873  .00159237  00000+0  81562-3 0  9998
2 67583  97.2851 103.1775 0001624  95.5932 264.5521 15.80852354  2900
STARLINK-36419          
1 67584U 26016Z   26043.91395634  .00179286  00000+0  91637-3 0  9991
2 67584  97.2855 103.1831 0001169  98.7215 261.4185 15.80846074  2905
STARLINK-36560          
1 67585U 26016AA  26043.91223179  .00233097  00000+0  11819-2 0  9990
2 67585  97.2856 103.1853 0001407  78.2611 281.8815 15.80881117  2902
CZ-2C DEB               
1 67586U 26009C   26044.15751546  .00055571  00000+0  27203-2 0  9997
2 67586  97.2256 117.4024 0109727 122.1704 239.0228 15.12754352  4372
