CCSDS_OMM_VERS = 2.0
CREATION_DATE  = 
ORIGINATOR     = 

OBJECT_NAME    = STARLINK-36400
OBJECT_ID      = 2026-016Q
CENTER_NAME    = EARTH
REF_FRAME      = TEME
TIME_SYSTEM    = UTC
MEAN_ELEMENT_THEORY = SGP/SGP4

EPOCH          = 2026-02-13T02:45:40.422816
MEAN_MOTION    = 15.80866163
ECCENTRICITY   = .0001537
INCLINATION    = 97.2842
RA_OF_ASC_NODE = 103.3665
ARG_OF_PERICENTER = 90.7464
MEAN_ANOMALY   = 269.3980

EPHEMERIS_TYPE = 0
CLASSIFICATION_TYPE = U
NORAD_CAT_ID   = 67575
ELEMENT_SET_NO = 999
REV_AT_EPOCH   = 293
BSTAR          = .57375E-3
MEAN_MOTION_DOT = .111429E-2
MEAN_MOTION_DDOT = 0

CCSDS_OMM_VERS = 2.0
CREATION_DATE  = 
ORIGINATOR     = 

OBJECT_NAME    = STARLINK-36591
OBJECT_ID      = 2026-016R
CENTER_NAME    = EARTH
REF_FRAME      = TEME
TIME_SYSTEM    = UTC
MEAN_ELEMENT_THEORY = SGP/SGP4

EPOCH          = 2026-02-13T02:44:08.856096
MEAN_MOTION    = 15.81105062
ECCENTRICITY   = .0000336
INCLINATION    = 97.2841
RA_OF_ASC_NODE = 103.3715
ARG_OF_PERICENTER = 219.7310
MEAN_ANOMALY   = 140.3934

EPHEMERIS_TYPE = 0
CLASSIFICATION_TYPE = U
NORAD_CAT_ID   = 67576
ELEMENT_SET_NO = 999
REV_AT_EPOCH   = 293
BSTAR          = .27333E-2
MEAN_MOTION_DOT = .566407E-2
MEAN_MOTION_DDOT = 0

CCSDS_OMM_VERS = 2.0
CREATION_DATE  = 
ORIGINATOR     = 

OBJECT_NAME    = STARLINK-36590
OBJECT_ID      = 2026-016S
CENTER_NAME    = EARTH
REF_FRAME      = TEME
TIME_SYSTEM    = UTC
MEAN_ELEMENT_THEORY = SGP/SGP4

EPOCH          = 2026-02-13T04:00:01.999584
MEAN_MOTION    = 15.77099784
ECCENTRICITY   = .0001691
INCLINATION    = 97.2847
RA_OF_ASC_NODE = 103.4260
ARG_OF_PERICENTER = 74.6477
MEAN_ANOMALY   = 224.6109

EPHEMERIS_TYPE = 0
CLASSIFICATION_TYPE = U
NORAD_CAT_ID   = 67577
ELEMENT_SET_NO = 999
REV_AT_EPOCH   = 410
BSTAR          = -.13141E-1
MEAN_MOTION_DOT = -.1863826E-1
MEAN_MOTION_DDOT = 0

CCSDS_OMM_VERS = 2.0
CREATION_DATE  = 
ORIGINATOR     = 

OBJECT_NAME    = STARLINK-36613
OBJECT_ID      = 2026-016T
CENTER_NAME    = EARTH
REF_FRAME      = TEME
TIME_SYSTEM    = UTC
MEAN_ELEMENT_THEORY = SGP/SGP4

EPOCH          = 2026-02-13T02:41:09.420576
MEAN_MOTION    = 15.80863376
ECCENTRICITY   = .0001196
INCLINATION    = 97.2843
RA_OF_ASC_NODE = 103.3734
ARG_OF_PERICENTER = 87.7443
MEAN_ANOMALY   = 272.3962

EPHEMERIS_TYPE = 0
CLASSIFICATION_TYPE = U
NORAD_CAT_ID   = 67578
ELEMENT_SET_NO = 999
REV_AT_EPOCH   = 293
BSTAR          = .68004E-3
MEAN_MOTION_DOT = .132398E-2
MEAN_MOTION_DDOT = 0

CCSDS_OMM_VERS = 2.0
CREATION_DATE  = 
ORIGINATOR     = 

OBJECT_NAME    = STARLINK-36571
OBJECT_ID      = 2026-016U
CENTER_NAME    = EARTH
REF_FRAME      = TEME
TIME_SYSTEM    = UTC
MEAN_ELEMENT_THEORY = SGP/SGP4

EPOCH          = 2026-02-12T22:00:03.000096
MEAN_MOTION    = 15.75191172
ECCENTRICITY   = .00014798
INCLINATION    = 97.2843
RA_OF_ASC_NODE = 103.1573
ARG_OF_PERICENTER = 83.4837
MEAN_ANOMALY   = 218.7037

EPHEMERIS_TYPE = 0
CLASSIFICATION_TYPE = U
NORAD_CAT_ID   = 67579
ELEMENT_SET_NO = 999
REV_AT_EPOCH   = 406
BSTAR          = -.22834817E-3
MEAN_MOTION_DOT = -.34056E-3
MEAN_MOTION_DDOT = 0

CCSDS_OMM_VERS = 2.0
CREATION_DATE  = 
ORIGINATOR     = 

OBJECT_NAME    = STARLINK-36612
OBJECT_ID      = 2026-016V
CENTER_NAME    = EARTH
REF_FRAME      = TEME
TIME_SYSTEM    = UTC
MEAN_ELEMENT_THEORY = SGP/SGP4

EPOCH          = 2026-02-12T22:03:58.138560
MEAN_MOTION    = 15.80843002
ECCENTRICITY   = .00010671
INCLINATION    = 97.2850
RA_OF_ASC_NODE = 103.1759
ARG_OF_PERICENTER = 86.8428
MEAN_ANOMALY   = 273.2962

EPHEMERIS_TYPE = 0
CLASSIFICATION_TYPE = U
NORAD_CAT_ID   = 67580
ELEMENT_SET_NO = 999
REV_AT_EPOCH   = 290
BSTAR          = .67293157E-3
MEAN_MOTION_DOT = .130867E-2
MEAN_MOTION_DDOT = 0

CCSDS_OMM_VERS = 2.0
CREATION_DATE  = 
ORIGINATOR     = 

OBJECT_NAME    = STARLINK-36632
OBJECT_ID      = 2026-016W
CENTER_NAME    = EARTH
REF_FRAME      = TEME
TIME_SYSTEM    = UTC
MEAN_ELEMENT_THEORY = SGP/SGP4

EPOCH          = 2026-02-12T21:59:34.073376
MEAN_MOTION    = 15.80105372
ECCENTRICITY   = .0001373
INCLINATION    = 97.2851
RA_OF_ASC_NODE = 103.1801
ARG_OF_PERICENTER = 113.6495
MEAN_ANOMALY   = 246.4917

EPHEMERIS_TYPE = 0
CLASSIFICATION_TYPE = U
NORAD_CAT_ID   = 67581
ELEMENT_SET_NO = 999
REV_AT_EPOCH   = 290
BSTAR          = -.3054114E-2
MEAN_MOTION_DOT = -.533206E-2
MEAN_MOTION_DDOT = 0

CCSDS_OMM_VERS = 2.0
CREATION_DATE  = 
ORIGINATOR     = 

OBJECT_NAME    = STARLINK-36609
OBJECT_ID      = 2026-016X
CENTER_NAME    = EARTH
REF_FRAME      = TEME
TIME_SYSTEM    = UTC
MEAN_ELEMENT_THEORY = SGP/SGP4

EPOCH          = 2026-02-12T22:00:03.000096
MEAN_MOTION    = 15.75208947
ECCENTRICITY   = .00012506
INCLINATION    = 97.2846
RA_OF_ASC_NODE = 103.1462
ARG_OF_PERICENTER = 74.1200
MEAN_ANOMALY   = 205.9252

EPHEMERIS_TYPE = 0
CLASSIFICATION_TYPE = U
NORAD_CAT_ID   = 67582
ELEMENT_SET_NO = 999
REV_AT_EPOCH   = 406
BSTAR          = .45239747E-3
MEAN_MOTION_DOT = .67942E-3
MEAN_MOTION_DDOT = 0

CCSDS_OMM_VERS = 2.0
CREATION_DATE  = 
ORIGINATOR     = 

OBJECT_NAME    = STARLINK-36577
OBJECT_ID      = 2026-016Y
CENTER_NAME    = EARTH
REF_FRAME      = TEME
TIME_SYSTEM    = UTC
MEAN_ELEMENT_THEORY = SGP/SGP4

EPOCH          = 2026-02-12T22:01:50.770272
MEAN_MOTION    = 15.80852354
ECCENTRICITY   = .00016241
INCLINATION    = 97.2851
RA_OF_ASC_NODE = 103.1775
ARG_OF_PERICENTER = 95.5932
MEAN_ANOMALY   = 264.5521

EPHEMERIS_TYPE = 0
CLASSIFICATION_TYPE = U
NORAD_CAT_ID   = 67583
ELEMENT_SET_NO = 999
REV_AT_EPOCH   = 290
BSTAR          = .81561547E-3
MEAN_MOTION_DOT = .159237E-2
MEAN_MOTION_DDOT = 0

CCSDS_OMM_VERS = 2.0
CREATION_DATE  = 
ORIGINATOR     = 

OBJECT_NAME    = STARLINK-36419
OBJECT_ID      = 2026-016Z
CENTER_NAME    = EARTH
REF_FRAME      = TEME
TIME_SYSTEM    = UTC
MEAN_ELEMENT_THEORY = SGP/SGP4

EPOCH          = 2026-02-12T21:56:05.827776
MEAN_MOTION    = 15.80846074
ECCENTRICITY   = .00011697
INCLINATION    = 97.2855
RA_OF_ASC_NODE = 103.1831
ARG_OF_PERICENTER = 98.7215
MEAN_ANOMALY   = 261.4185

EPHEMERIS_TYPE = 0
CLASSIFICATION_TYPE = U
NORAD_CAT_ID   = 67584
ELEMENT_SET_NO = 999
REV_AT_EPOCH   = 290
BSTAR          = .91637295E-3
MEAN_MOTION_DOT = .179286E-2
MEAN_MOTION_DDOT = 0

CCSDS_OMM_VERS = 2.0
CREATION_DATE  = 
ORIGINATOR     = 

OBJECT_NAME    = STARLINK-36560
OBJECT_ID      = 2026-016AA
CENTER_NAME    = EARTH
REF_FRAME      = TEME
TIME_SYSTEM    = UTC
MEAN_ELEMENT_THEORY = SGP/SGP4

EPOCH          = 2026-02-12T21:53:36.826656
MEAN_MOTION    = 15.80881117
ECCENTRICITY   = .00014074
INCLINATION    = 97.2856
RA_OF_ASC_NODE = 103.1853
ARG_OF_PERICENTER = 78.2611
MEAN_ANOMALY   = 281.8815

EPHEMERIS_TYPE = 0
CLASSIFICATION_TYPE = U
NORAD_CAT_ID   = 67585
ELEMENT_SET_NO = 999
REV_AT_EPOCH   = 290
BSTAR          = .11819224E-2
MEAN_MOTION_DOT = .233097E-2
MEAN_MOTION_DDOT = 0

CCSDS_OMM_VERS = 2.0
CREATION_DATE  = 
ORIGINATOR     = 

OBJECT_NAME    = CZ-2C DEB
OBJECT_ID      = 2026-009C
CENTER_NAME    = EARTH
REF_FRAME      = TEME
TIME_SYSTEM    = UTC
MEAN_ELEMENT_THEORY = SGP/SGP4

EPOCH          = 2026-02-13T03:46:49.335744
MEAN_MOTION    = 15.12754352
ECCENTRICITY   = .0109727
INCLINATION    = 97.2256
RA_OF_ASC_NODE = 117.4024
ARG_OF_PERICENTER = 122.1704
MEAN_ANOMALY   = 239.0228

EPHEMERIS_TYPE = 0
CLASSIFICATION_TYPE = U
NORAD_CAT_ID   = 67586
ELEMENT_SET_NO = 999
REV_AT_EPOCH   = 437
BSTAR          = .27203E-2
MEAN_MOTION_DOT = .55571E-3
MEAN_MOTION_DDOT = 0

